NORAD_CAT_ID,OBJECT_NAME,OBJECT_TYPE,EPOCH,MEAN_MOTION,ECCENTRICITY,INCLINATION,RA_OF_ASC_NODE,ARG_OF_PERICENTER,MEAN_ANOMALY,BSTAR,MEAN_MOTION_DOT,MEAN_MOTION_DDOT,TLE_LINE0,TLE_LINE1,TLE_LINE2,SEMIMAJOR_AXIS,PERIOD,APOGEE,PERIGEE,DECAYED
53529.0,STARLINK-4478,PAYLOAD,2023-08-30 07:30:38,15.0884666,0.0001145,53.2158,254.8271,89.2231,270.8892,1.3948e-05,-6.6e-07,0.0,0 STARLINK-4478,1 53529U 22101C   23242.31294441 -.00000066  00000-0  13948-4 0  9993,2 53529  53.2158 254.8271 0001145  89.2231 270.8892 15.08846660 56916,6917.86,95.437,540.517,538.933,0.0
53529.0,STARLINK-4478,PAYLOAD,2023-08-31 00:59:53,15.08835226,0.0001155,53.2156,251.5556,89.8182,270.2942,6.0682e-05,6.78e-06,0.0,0 STARLINK-4478,1 53529U 22101C   23243.04159062  .00000678  00000-0  60682-4 0  9998,2 53529  53.2156 251.5556 0001155  89.8182 270.2942 15.08835226 57025,6917.895,95.438,540.559,538.961,0.0
53529.0,STARLINK-4478,PAYLOAD,2023-09-01 07:12:12,15.08841991,0.0001162,53.2154,245.9062,88.5486,271.5639,7.153e-05,8.51e-06,0.0,0 STARLINK-4478,1 53529U 22101C   23244.30014847  .00000851  00000-0  71530-4 0  9996,2 53529  53.2154 245.9062 0001162  88.5486 271.5639 15.08841991 57217,6917.874,95.437,540.543,538.935,0.0
53529.0,STARLINK-4478,PAYLOAD,2023-09-01 16:44:31,15.0883739,0.0001186,53.2157,244.1219,89.3731,270.7397,0.00014295,1.988e-05,0.0,0 STARLINK-4478,1 53529U 22101C   23244.69759037  .00001988  00000-0  14295-3 0  9991,2 53529  53.2157 244.1219 0001186  89.3731 270.7397 15.08837390 57279,6917.888,95.438,540.574,538.933,0.0
53529.0,STARLINK-4478,PAYLOAD,2023-09-02 07:02:59,15.08841421,0.000132,53.2163,241.4468,94.1709,265.9434,9.4695e-05,1.22e-05,0.0,0 STARLINK-4478,1 53529U 22101C   23245.29374944  .00001220  00000-0  94695-4 0  9990,2 53529  53.2163 241.4468 0001320  94.1709 265.9434 15.08841421 57369,6917.876,95.437,540.654,538.828,0.0
53529.0,STARLINK-4478,PAYLOAD,2023-09-02 16:35:18,15.08841717,0.0001273,53.2164,239.6629,93.6948,266.419,6.4522e-05,7.39e-06,0.0,0 STARLINK-4478,1 53529U 22101C   23245.69119021  .00000739  00000-0  64522-4 0  9997,2 53529  53.2164 239.6629 0001273  93.6948 266.4190 15.08841717 57424,6917.875,95.437,540.621,538.859,0.0
53529.0,STARLINK-4478,PAYLOAD,2023-09-03 11:39:56,15.08841245,0.0001434,53.2153,236.0936,92.3292,267.7864,5.6286e-05,6.08e-06,0.0,0 STARLINK-4478,1 53529U 22101C   23246.48607162  .00000608  00000-0  56286-4 0  9996,2 53529  53.2153 236.0936 0001434  92.3292 267.7864 15.08841245 57542,6917.877,95.437,540.734,538.75,0.0
53529.0,STARLINK-4478,PAYLOAD,2023-09-03 16:26:06,15.08836321,0.0001548,53.2153,235.2002,85.7074,274.4095,3.4739e-05,2.65e-06,0.0,0 STARLINK-4478,1 53529U 22101C   23246.68479614  .00000265  00000-0  34739-4 0  9995,2 53529  53.2153 235.2002 0001548  85.7074 274.4095 15.08836321 57570,6917.892,95.438,540.828,538.686,0.0
53529.0,STARLINK-4478,PAYLOAD,2023-09-04 05:09:13,15.08755747,0.0002199,53.2167,232.8204,89.0874,271.037,0.0010833,0.00016955,0.0,0 STARLINK-4478,1 53529U 22101C   23247.21473874  .00016955  00000-0  10833-2 0  9997,2 53529  53.2167 232.8204 0002199  89.0874 271.0370 15.08755747 57650,6918.138,95.443,541.524,538.482,0.0
53529.0,STARLINK-4478,PAYLOAD,2023-09-04 06:44:34,15.08835236,0.0001212,53.2164,232.5231,74.3633,285.7493,-1.2788e-05,-4.91e-06,0.0,0 STARLINK-4478,1 53529U 22101C   23247.28095977 -.00000491  00000-0 -12788-4 0  9991,2 53529  53.2164 232.5231 0001212  74.3633 285.7493 15.08835236 57660,6917.895,95.438,540.598,538.922,0.0
53529.0,STARLINK-4478,PAYLOAD,2023-09-04 16:16:53,15.08842848,0.0001526,53.2163,230.7398,87.4217,272.695,-6.1921e-05,-1.273e-05,0.0,0 STARLINK-4478,1 53529U 22101C   23247.67839720 -.00001273  00000-0 -61921-4 0  9998,2 53529  53.2163 230.7398 0001526  87.4217 272.6950 15.08842848 57721,6917.872,95.437,540.792,538.681,0.0
53529.0,STARLINK-4478,PAYLOAD,2023-09-05 11:21:31,15.08841605,0.0001482,53.2161,227.1714,84.6975,275.4186,8.9889e-05,1.143e-05,0.0,0 STARLINK-4478,1 53529U 22101C   23248.47327603  .00001143  00000-0  89889-4 0  9996,2 53529  53.2161 227.1714 0001482  84.6975 275.4186 15.08841605 57847,6917.875,95.437,540.766,538.715,0.0
53529.0,STARLINK-4478,PAYLOAD,2023-09-06 09:36:54,15.08847766,0.000143,53.2165,223.0086,85.0382,275.0774,0.00015824,2.232e-05,0.0,0 STARLINK-4478,1 53529U 22101C   23249.40063086  .00002232  00000-0  15824-3 0  9999,2 53529  53.2165 223.0086 0001430  85.0382 275.0774 15.08847766 57986,6917.857,95.437,540.711,538.732,0.0
53529.0,STARLINK-4478,PAYLOAD,2023-09-07 07:52:18,15.088473,0.0001443,53.2167,218.8456,84.6967,275.419,5.834e-05,6.41e-06,0.0,0 STARLINK-4478,1 53529U 22101C   23250.32799084  .00000641  00000-0  58340-4 0  9999,2 53529  53.2167 218.8456 0001443  84.6967 275.4190 15.08847300 58126,6917.858,95.437,540.721,538.725,0.0
53529.0,STARLINK-4478,PAYLOAD,2023-09-08 02:56:56,15.08843101,0.0001425,53.2173,215.2775,109.516,250.5986,-1.2856e-05,-4.93e-06,0.0,0 STARLINK-4478,1 53529U 22101C   23251.12287596 -.00000493  00000-0 -12856-4 0  9997,2 53529  53.2173 215.2775 0001425 109.5160 250.5986 15.08843101 58245,6917.871,95.437,540.722,538.75,0.0
53529.0,STARLINK-4478,PAYLOAD,2023-09-08 04:32:19,15.08840806,0.0001185,53.2159,214.9805,90.3853,269.7275,-4.4128e-05,-9.9e-06,0.0,0 STARLINK-4478,1 53529U 22101C   23251.18911788 -.00000990  00000-0 -44128-4 0  9999,2 53529  53.2159 214.9805 0001185  90.3853 269.7275 15.08840806 58251,6917.878,95.438,540.563,538.923,0.0
53529.0,STARLINK-4478,PAYLOAD,2023-09-09 02:47:43,15.08811141,9.94e-05,53.2171,210.819,86.9703,273.1402,0.0004527,6.919e-05,0.0,0 STARLINK-4478,1 53529U 22101C   23252.11647940  .00006919  00000-0  45270-3 0  9992,2 53529  53.2171 210.8190 0000994  86.9703 273.1402 15.08811141 58395,6917.969,95.439,540.521,539.146,0.0
53529.0,STARLINK-4478,PAYLOAD,2023-09-09 07:33:52,15.08839352,0.0001313,53.2167,209.9251,88.4702,271.6441,0.00013966,1.935e-05,0.0,0 STARLINK-4478,1 53529U 22101C   23252.31519654  .00001935  00000-0  13966-3 0  9994,2 53529  53.2167 209.9251 0001313  88.4702 271.6441 15.08839352 58423,6917.882,95.438,540.656,538.839,0.0
53529.0,STARLINK-4478,PAYLOAD,2023-09-09 13:55:25,15.08832558,0.0001029,53.2167,208.7353,99.6243,260.4866,0.00016907,2.403e-05,0.0,0 STARLINK-4478,1 53529U 22101C   23252.58016085  .00002403  00000-0  16907-3 0  9992,2 53529  53.2167 208.7353 0001029  99.6243 260.4866 15.08832558 58463,6917.903,95.438,540.48,539.056,0.0
53529.0,STARLINK-4478,PAYLOAD,2023-09-10 05:49:17,15.08838262,0.0001237,53.2169,205.7632,96.8971,263.2162,9.8287e-05,1.277e-05,0.0,0 STARLINK-4478,1 53529U 22101C   23253.24256362  .00001277  00000-0  98287-4 0  9990,2 53529  53.2169 205.7632 0001237  96.8971 263.2162 15.08838262 58569,6917.886,95.438,540.606,538.895,0.0
53529.0,STARLINK-4478,PAYLOAD,2023-09-11 02:29:18,15.08838297,0.0001367,53.2178,201.8982,97.6741,262.4407,6.0544e-05,6.76e-06,0.0,0 STARLINK-4478,1 53529U 22101C   23254.10368834  .00000676  00000-0  60544-4 0  9991,2 53529  53.2178 201.8982 0001367  97.6741 262.4407 15.08838297 58697,6917.886,95.438,540.696,538.805,0.0
53529.0,STARLINK-4478,PAYLOAD,2023-09-11 13:37:00,15.08842222,0.0001298,53.2174,199.8163,92.68,267.4341,6.6922e-05,7.77e-06,0.0,0 STARLINK-4478,1 53529U 22101C   23254.56736648  .00000777  00000-0  66922-4 0  9991,2 53529  53.2174 199.8163 0001298  92.6800 267.4341 15.08842222 58767,6917.874,95.437,540.637,538.841,0.0
53529.0,STARLINK-4478,PAYLOAD,2023-09-12 02:19:53,15.09003081,0.000433,53.2175,197.435,313.3211,46.742,0.0014575,0.00023091,0.0,0 STARLINK-4478,1 53529U 22101C   23255.09714743  .00023091  00000-0  14575-2 0  9991,2 53529  53.2175 197.4350 0004330 313.3211  46.7420 15.09003081 58847,6917.382,95.427,542.242,536.252,0.0
53529.0,STARLINK-4478,PAYLOAD,2023-09-12 10:17:02,15.08815149,0.0001149,53.2176,195.9457,105.8294,254.2824,0.00018464,2.65e-05,0.0,0 STARLINK-4478,1 53529U 22101C   23255.42850168  .00002650  00000-0  18464-3 0  9990,2 53529  53.2176 195.9457 0001149 105.8294 254.2824 15.08815149 58893,6917.956,95.439,540.616,539.026,0.0
53529.0,STARLINK-4478,PAYLOAD,2023-09-12 11:52:24,15.08839444,0.0001181,53.2177,195.6491,87.5799,272.5328,0.00039613,6.022e-05,0.0,0 STARLINK-4478,1 53529U 22101C   23255.49472378  .00006022  00000-0  39613-3 0  9996,2 53529  53.2177 195.6491 0001181  87.5799 272.5328 15.08839444 58909,6917.882,95.438,540.564,538.93,0.0
53529.0,STARLINK-4478,PAYLOAD,2023-09-13 05:21:38,15.08857424,0.0001259,53.2164,192.3794,82.1086,278.0049,0.00030073,4.504e-05,0.0,0 STARLINK-4478,1 53529U 22101C   23256.22335722  .00004504  00000-0  30073-3 0  9993,2 53529  53.2164 192.3794 0001259  82.1086 278.0049 15.08857424 59013,6917.827,95.436,540.563,538.821,0.0
53529.0,STARLINK-4478,PAYLOAD,2023-09-13 19:40:09,15.08780639,4.04e-05,53.2179,189.7019,131.2124,228.8903,1.0813e-05,-1.15e-06,0.0,0 STARLINK-4478,1 53529U 22101C   23256.81955331 -.00000115  00000-0  10813-4 0  9998,2 53529  53.2179 189.7019 0000404 131.2124 228.8903 15.08780639 59104,6918.062,95.441,540.206,539.647,0.0
53529.0,STARLINK-4478,PAYLOAD,2023-09-14 02:01:36,15.08897108,0.0001695,53.2179,188.5135,336.3994,23.692,-0.0012272,-0.00019796,0.0,0 STARLINK-4478,1 53529U 22101C   23257.08445285 -.00019796  00000-0 -12272-2 0  9995,2 53529  53.2179 188.5135 0001695 336.3994  23.6920 15.08897108 59140,6917.706,95.434,540.743,538.398,0.0
53529.0,STARLINK-4478,PAYLOAD,2023-09-14 05:12:22,15.08892043,0.0001442,53.2178,187.9176,337.3549,22.7379,-0.0011048,-0.00017853,0.0,0 STARLINK-4478,1 53529U 22101C   23257.21693218 -.00017853  00000-0 -11048-2 0  9993,2 53529  53.2178 187.9176 0001442 337.3549  22.7379 15.08892043 59167,6917.721,95.434,540.584,538.589,0.0
53529.0,STARLINK-4478,PAYLOAD,2023-09-14 19:30:54,15.08833214,0.0001626,53.2175,185.2413,101.2675,258.85,0.00011249,1.502e-05,0.0,0 STARLINK-4478,1 53529U 22101C   23257.81312935  .00001502  00000-0  11249-3 0  9999,2 53529  53.2175 185.2413 0001626 101.2675 258.8500 15.08833214 59254,6917.901,95.438,540.891,538.641,0.0
